start=new Date('2022-08-23T00:00:00.000Z').valueOf();
sats=[{"TIME_SYSTEM":"UTC","DECAY_DATE":null,"MEAN_ANOMALY":"278.0335","BSTAR":"0.00012427000000","EPHEMERIS_TYPE":"0","OBJECT_ID":"2020-088AX","REF_FRAME":"TEME","TLE_LINE1":"1 47167U 20088AX  22234.82203344  .00001570  00000-0  12427-3 0  9994","SEMIMAJOR_AXIS":"6925.366","LAUNCH_DATE":"2020-11-25","ARG_OF_PERICENTER":"82.0814","NORAD_CAT_ID":"47167","SITE":"AFETR","CLASSIFICATION_TYPE":"U","TLE_LINE2":"2 47167  53.0565 354.4935 0001406  82.0814 278.0335 15.06394219 96674","MEAN_ELEMENT_THEORY":"SGP4","ELEMENT_SET_NO":"999","APOAPSIS":"548.205","MEAN_MOTION_DOT":"0.00001570","MEAN_MOTION_DDOT":"0.0000000000000","RA_OF_ASC_NODE":"354.4935","MEAN_MOTION":"15.06394219","GP_ID":"210776634","OBJECT_TYPE":"PAYLOAD","FILE":"3544179","CENTER_NAME":"EARTH","PERIAPSIS":"546.258","EPOCH":"2022-08-22T19:43:43.689216","INCLINATION":"53.0565","REV_AT_EPOCH":"9667","COUNTRY_CODE":"US","PERIOD":"95.593","RCS_SIZE":"LARGE","ECCENTRICITY":"0.00014060","OBJECT_NAME":"STARLINK-1884"},{"OBJECT_NAME":"STARLINK-1887","PERIOD":"95.592","RCS_SIZE":"LARGE","ECCENTRICITY":"0.00013930","REV_AT_EPOCH":"9664","COUNTRY_CODE":"US","EPOCH":"2022-08-22T14:35:52.749888","INCLINATION":"53.0561","FILE":"3544179","CENTER_NAME":"EARTH","PERIAPSIS":"546.252","MEAN_MOTION":"15.06398868","GP_ID":"210775382","OBJECT_TYPE":"PAYLOAD","MEAN_MOTION_DDOT":"0.0000000000000","RA_OF_ASC_NODE":"355.4616","ELEMENT_SET_NO":"999","APOAPSIS":"548.182","MEAN_MOTION_DOT":"0.00001658","MEAN_ELEMENT_THEORY":"SGP4","TLE_LINE2":"2 47170  53.0561 355.4616 0001393  90.4415 269.6733 15.06398868 96645","CLASSIFICATION_TYPE":"U","SITE":"AFETR","NORAD_CAT_ID":"47170","TLE_LINE1":"1 47170U 20088BA  22234.60824942  .00001658  00000-0  13017-3 0  9990","SEMIMAJOR_AXIS":"6925.352","LAUNCH_DATE":"2020-11-25","ARG_OF_PERICENTER":"90.4415","EPHEMERIS_TYPE":"0","OBJECT_ID":"2020-088BA","REF_FRAME":"TEME","TIME_SYSTEM":"UTC","BSTAR":"0.00013017000000","DECAY_DATE":null,"MEAN_ANOMALY":"269.6733"},{"SITE":"AFETR","NORAD_CAT_ID":"47171","ARG_OF_PERICENTER":"81.2908","TLE_LINE1":"1 47171U 20088BB  22234.22952713  .00001385  00000-0  11190-3 0  9994","LAUNCH_DATE":"2020-11-25","SEMIMAJOR_AXIS":"6925.390","OBJECT_ID":"2020-088BB","REF_FRAME":"TEME","EPHEMERIS_TYPE":"0","MEAN_ANOMALY":"278.8237","DECAY_DATE":null,"BSTAR":"0.00011190000000","TIME_SYSTEM":"UTC","MEAN_ELEMENT_THEORY":"SGP4","CLASSIFICATION_TYPE":"U","TLE_LINE2":"2 47171  53.0546 347.1598 0001381  81.2908 278.8237 15.06386409 97019","CENTER_NAME":"EARTH","PERIAPSIS":"546.299","FILE":"3543940","GP_ID":"210749551","OBJECT_TYPE":"PAYLOAD","MEAN_MOTION":"15.06386409","MEAN_MOTION_DDOT":"0.0000000000000","RA_OF_ASC_NODE":"347.1598","APOAPSIS":"548.212","ELEMENT_SET_NO":"999","MEAN_MOTION_DOT":"0.00001385","OBJECT_NAME":"STARLINK-1888","RCS_SIZE":"LARGE","ECCENTRICITY":"0.00013810","PERIOD":"95.593","REV_AT_EPOCH":"9701","COUNTRY_CODE":"US","INCLINATION":"53.0546","EPOCH":"2022-08-22T05:30:31.144032"},{"PERIOD":"95.593","ECCENTRICITY":"0.00013600","RCS_SIZE":"LARGE","OBJECT_NAME":"STARLINK-1890","EPOCH":"2022-08-22T21:13:59.548800","INCLINATION":"53.0563","COUNTRY_CODE":"US","REV_AT_EPOCH":"9668","MEAN_MOTION":"15.06379917","OBJECT_TYPE":"PAYLOAD","GP_ID":"210776384","FILE":"3544179","CENTER_NAME":"EARTH","PERIAPSIS":"546.333","MEAN_MOTION_DOT":"0.00006187","APOAPSIS":"548.217","ELEMENT_SET_NO":"999","RA_OF_ASC_NODE":"354.2326","MEAN_MOTION_DDOT":"0.0000000000000","MEAN_ELEMENT_THEORY":"SGP4","CLASSIFICATION_TYPE":"U","TLE_LINE2":"2 47173  53.0563 354.2326 0001360  69.7135 290.4000 15.06379917 96684","SEMIMAJOR_AXIS":"6925.410","LAUNCH_DATE":"2020-11-25","TLE_LINE1":"1 47173U 20088BD  22234.88471700  .00006187  00000-0  43408-3 0  9992","ARG_OF_PERICENTER":"69.7135","SITE":"AFETR","NORAD_CAT_ID":"47173","TIME_SYSTEM":"UTC","DECAY_DATE":null,"BSTAR":"0.00043408000000","MEAN_ANOMALY":"290.4000","EPHEMERIS_TYPE":"0","REF_FRAME":"TEME","OBJECT_ID":"2020-088BD"},{"MEAN_ELEMENT_THEORY":"SGP4","TLE_LINE2":"2 47174  53.0555 356.5469 0001509  83.9497 276.1664 15.06388704 96606","CLASSIFICATION_TYPE":"U","ARG_OF_PERICENTER":"83.9497","SEMIMAJOR_AXIS":"6925.383","LAUNCH_DATE":"2020-11-25","TLE_LINE1":"1 47174U 20088BE  22234.36497745  .00001263  00000-0  10372-3 0  9997","SITE":"AFETR","NORAD_CAT_ID":"47174","MEAN_ANOMALY":"276.1664","DECAY_DATE":null,"BSTAR":"0.00010372000000","TIME_SYSTEM":"UTC","REF_FRAME":"TEME","OBJECT_ID":"2020-088BE","EPHEMERIS_TYPE":"0","ECCENTRICITY":"0.00015090","RCS_SIZE":"LARGE","PERIOD":"95.593","OBJECT_NAME":"STARLINK-1891","INCLINATION":"53.0555","EPOCH":"2022-08-22T08:45:34.051680","COUNTRY_CODE":"US","REV_AT_EPOCH":"9660","OBJECT_TYPE":"PAYLOAD","GP_ID":"210742438","MEAN_MOTION":"15.06388704","PERIAPSIS":"546.203","CENTER_NAME":"EARTH","FILE":"3543757","MEAN_MOTION_DOT":"0.00001263","APOAPSIS":"548.293","ELEMENT_SET_NO":"999","RA_OF_ASC_NODE":"356.5469","MEAN_MOTION_DDOT":"0.0000000000000"},{"ARG_OF_PERICENTER":"75.1687","SEMIMAJOR_AXIS":"6925.336","LAUNCH_DATE":"2020-11-25","TLE_LINE1":"1 47175U 20088BF  22234.76121213  .00003835  00000-0  27621-3 0  9998","SITE":"AFETR","NORAD_CAT_ID":"47175","MEAN_ANOMALY":"284.9462","DECAY_DATE":null,"BSTAR":"0.00027621000000","TIME_SYSTEM":"UTC","REF_FRAME":"TEME","OBJECT_ID":"2020-088BF","EPHEMERIS_TYPE":"0","MEAN_ELEMENT_THEORY":"SGP4","TLE_LINE2":"2 47175  53.0545 334.7900 0001451  75.1687 284.9462 15.06404243 96941","CLASSIFICATION_TYPE":"U","OBJECT_TYPE":"PAYLOAD","GP_ID":"210775882","MEAN_MOTION":"15.06404243","CENTER_NAME":"EARTH","PERIAPSIS":"546.196","FILE":"3544179","MEAN_MOTION_DOT":"0.00003835","APOAPSIS":"548.205","ELEMENT_SET_NO":"999","RA_OF_ASC_NODE":"334.7900","MEAN_MOTION_DDOT":"0.0000000000000","ECCENTRICITY":"0.00014510","RCS_SIZE":"LARGE","PERIOD":"95.592","OBJECT_NAME":"STARLINK-1895","INCLINATION":"53.0545","EPOCH":"2022-08-22T18:16:08.728032","COUNTRY_CODE":"US","REV_AT_EPOCH":"9694"},{"SITE":"AFETR","NORAD_CAT_ID":"47177","SEMIMAJOR_AXIS":"6925.387","LAUNCH_DATE":"2020-11-25","TLE_LINE1":"1 47177U 20088BH  22234.61286817  .00000901  00000-0  79400-4 0  9990","ARG_OF_PERICENTER":"80.7032","EPHEMERIS_TYPE":"0","REF_FRAME":"TEME","OBJECT_ID":"2020-088BH","TIME_SYSTEM":"UTC","BSTAR":"0.00007940000000","DECAY_DATE":null,"MEAN_ANOMALY":"279.4097","MEAN_ELEMENT_THEORY":"SGP4","TLE_LINE2":"2 47177  53.0557 345.4577 0001237  80.7032 279.4097 15.06387381 96781","CLASSIFICATION_TYPE":"U","FILE":"3544179","CENTER_NAME":"EARTH","PERIAPSIS":"546.396","MEAN_MOTION":"15.06387381","OBJECT_TYPE":"PAYLOAD","GP_ID":"210776132","MEAN_MOTION_DDOT":"0.0000000000000","RA_OF_ASC_NODE":"345.4577","MEAN_MOTION_DOT":"0.00000901","APOAPSIS":"548.109","ELEMENT_SET_NO":"999","OBJECT_NAME":"STARLINK-1907","PERIOD":"95.593","ECCENTRICITY":"0.00012370","RCS_SIZE":"LARGE","COUNTRY_CODE":"US","REV_AT_EPOCH":"9678","EPOCH":"2022-08-22T14:42:31.809888","INCLINATION":"53.0557"},{"RCS_SIZE":"LARGE","ECCENTRICITY":"0.00013240","PERIOD":"95.593","OBJECT_NAME":"STARLINK-1912","INCLINATION":"53.0573","EPOCH":"2022-08-22T17:25:44.393664","REV_AT_EPOCH":"9665","COUNTRY_CODE":"US","GP_ID":"210776884","OBJECT_TYPE":"PAYLOAD","MEAN_MOTION":"15.06389061","CENTER_NAME":"EARTH","PERIAPSIS":"546.330","FILE":"3544179","ELEMENT_SET_NO":"999","APOAPSIS":"548.164","MEAN_MOTION_DOT":"0.00001300","RA_OF_ASC_NODE":"354.9398","MEAN_MOTION_DDOT":"0.0000000000000","MEAN_ELEMENT_THEORY":"SGP4","TLE_LINE2":"2 47178  53.0573 354.9398 0001324  99.3797 260.7342 15.06389061 96656","CLASSIFICATION_TYPE":"U","ARG_OF_PERICENTER":"99.3797","TLE_LINE1":"1 47178U 20088BJ  22234.72620826  .00001300  00000-0  10617-3 0  9993","LAUNCH_DATE":"2020-11-25","SEMIMAJOR_AXIS":"6925.382","SITE":"AFETR","NORAD_CAT_ID":"47178","DECAY_DATE":null,"BSTAR":"0.00010617000000","MEAN_ANOMALY":"260.7342","TIME_SYSTEM":"UTC","OBJECT_ID":"2020-088BJ","REF_FRAME":"TEME","EPHEMERIS_TYPE":"0"},{"CENTER_NAME":"EARTH","PERIAPSIS":"546.299","FILE":"3544179","GP_ID":"210776635","OBJECT_TYPE":"PAYLOAD","MEAN_MOTION":"15.06391623","MEAN_MOTION_DDOT":"0.0000000000000","RA_OF_ASC_NODE":"4.4022","APOAPSIS":"548.180","ELEMENT_SET_NO":"999","MEAN_MOTION_DOT":"-0.00000337","OBJECT_NAME":"STARLINK-1913","RCS_SIZE":"LARGE","ECCENTRICITY":"0.00013580","PERIOD":"95.593","REV_AT_EPOCH":"9653","COUNTRY_CODE":"US","INCLINATION":"53.0562","EPOCH":"2022-08-22T20:19:33.970080","NORAD_CAT_ID":"47179","SITE":"AFETR","ARG_OF_PERICENTER":"81.0380","TLE_LINE1":"1 47179U 20088BK  22234.84692095 -.00000337  00000-0 -37266-5 0  9996","SEMIMAJOR_AXIS":"6925.374","LAUNCH_DATE":"2020-11-25","OBJECT_ID":"2020-088BK","REF_FRAME":"TEME","EPHEMERIS_TYPE":"0","BSTAR":"-0.00000372660000","DECAY_DATE":null,"MEAN_ANOMALY":"279.0763","TIME_SYSTEM":"UTC","MEAN_ELEMENT_THEORY":"SGP4","CLASSIFICATION_TYPE":"U","TLE_LINE2":"2 47179  53.0562   4.4022 0001358  81.0380 279.0763 15.06391623 96533"},{"CLASSIFICATION_TYPE":"U","TLE_LINE2":"2 47181  53.0552 335.7233 0001492  82.6332 277.4826 15.06388012 96903","MEAN_ELEMENT_THEORY":"SGP4","REF_FRAME":"TEME","OBJECT_ID":"2020-088BM","EPHEMERIS_TYPE":"0","MEAN_ANOMALY":"277.4826","DECAY_DATE":null,"BSTAR":"0.00012474000000","TIME_SYSTEM":"UTC","NORAD_CAT_ID":"47181","SITE":"AFETR","ARG_OF_PERICENTER":"82.6332","SEMIMAJOR_AXIS":"6925.385","LAUNCH_DATE":"2020-11-25","TLE_LINE1":"1 47181U 20088BM  22234.55480928  .00001576  00000-0  12474-3 0  9993","COUNTRY_CODE":"US","REV_AT_EPOCH":"9690","INCLINATION":"53.0552","EPOCH":"2022-08-22T13:18:55.521792","OBJECT_NAME":"STARLINK-1927","ECCENTRICITY":"0.00014920","RCS_SIZE":"LARGE","PERIOD":"95.593","MEAN_MOTION_DDOT":"0.0000000000000","RA_OF_ASC_NODE":"335.7233","MEAN_MOTION_DOT":"0.00001576","APOAPSIS":"548.284","ELEMENT_SET_NO":"999","CENTER_NAME":"EARTH","PERIAPSIS":"546.217","FILE":"3544179","OBJECT_TYPE":"PAYLOAD","GP_ID":"210775383","MEAN_MOTION":"15.06388012"}];
